{
    "links": {
        "self": "http://www.neowsapp.com/rest/v1/neo/3759005?api_key=iIulBulltgU6a56xZRHN4H3l9WmuAYTsLGpBGhQ2"
    },
    "id": "3759005",
    "neo_reference_id": "3759005",
    "name": "(2016 RO17)",
    "designation": "2016 RO17",
    "nasa_jpl_url": "http://ssd.jpl.nasa.gov/sbdb.cgi?sstr=3759005",
    "absolute_magnitude_h": 26.3,
    "estimated_diameter": {
        "kilometers": {
            "estimated_diameter_min": 0.0146067964,
            "estimated_diameter_max": 0.0326617897
        },
        "meters": {
            "estimated_diameter_min": 14.6067964271,
            "estimated_diameter_max": 32.6617897446
        },
        "miles": {
            "estimated_diameter_min": 0.0090762397,
            "estimated_diameter_max": 0.020295089
        },
        "feet": {
            "estimated_diameter_min": 47.92256199,
            "estimated_diameter_max": 107.1581062656
        }
    },
    "is_potentially_hazardous_asteroid": false,
    "close_approach_data": [
        {
            "close_approach_date": "2016-09-08",
            "close_approach_date_full": "2016-Sep-08 03:37",
            "epoch_date_close_approach": 1473305820000,
            "relative_velocity": {
                "kilometers_per_second": "16.0163941969",
                "kilometers_per_hour": "57659.0191087511",
                "miles_per_hour": "35827.0721789904"
            },
            "miss_distance": {
                "astronomical": "0.0058991912",
                "lunar": "2.2947853768",
                "kilometers": "882506.438242744",
                "miles": "548364.0727441072"
            },
            "orbiting_body": "Earth"
        },
        {
            "close_approach_date": "2016-09-08",
            "close_approach_date_full": "2016-Sep-08 03:39",
            "epoch_date_close_approach": 1473305940000,
            "relative_velocity": {
                "kilometers_per_second": "16.9600262157",
                "kilometers_per_hour": "61056.094376363",
                "miles_per_hour": "37937.8826418018"
            },
            "miss_distance": {
                "astronomical": "0.0050982746",
                "lunar": "1.9832288194",
                "kilometers": "762691.020835102",
                "miles": "473914.2246523276"
            },
            "orbiting_body": "Moon"
        },
        {
            "close_approach_date": "2019-08-21",
            "close_approach_date_full": "2019-Aug-21 10:05",
            "epoch_date_close_approach": 1566381900000,
            "relative_velocity": {
                "kilometers_per_second": "24.4426702752",
                "kilometers_per_hour": "87993.6129908737",
                "miles_per_hour": "54675.8091386904"
            },
            "miss_distance": {
                "astronomical": "0.2864098786",
                "lunar": "111.4134427754",
                "kilometers": "42846307.785518582",
                "miles": "26623461.1116251516"
            },
            "orbiting_body": "Earth"
        }
    ],
    "orbital_data": {
        "orbit_id": "2",
        "orbit_determination_date": "2017-04-06 08:24:07",
        "first_observation_date": "2016-09-05",
        "last_observation_date": "2016-09-07",
        "data_arc_in_days": 2,
        "observations_used": 76,
        "orbit_uncertainty": "7",
        "minimum_orbit_intersection": ".00500266",
        "jupiter_tisserand_invariant": "3.500",
        "epoch_osculation": "2459000.5",
        "eccentricity": ".6318083082468039",
        "semi_major_axis": "2.054710522719613",
        "inclination": "6.675579639227629",
        "ascending_node_longitude": "167.7182440445791",
        "orbital_period": "1075.782299960067",
        "perihelion_distance": ".7565273434232281",
        "perihelion_argument": "246.511896022609",
        "aphelion_distance": "3.352893702015998",
        "perihelion_time": "2458762.299520548735",
        "mean_anomaly": "79.71145519464153",
        "mean_motion": ".3346401962677423",
        "equinox": "J2000",
        "orbit_class": {
            "orbit_class_type": "APO",
            "orbit_class_description": "Near-Earth asteroid orbits which cross the Earth’s orbit similar to that of 1862 Apollo",
            "orbit_class_range": "a (semi-major axis) > 1.0 AU; q (perihelion) < 1.017 AU"
        }
    },
    "is_sentry_object": false
}